start=new Date('2022-11-01T00:00:00.000Z').valueOf();
sats=[{"EPOCH":"2022-10-31T20:48:56.272608","MEAN_MOTION_DDOT":"0.0000000000000","GP_ID":"216612736","RA_OF_ASC_NODE":"125.0689","MEAN_ELEMENT_THEORY":"SGP4","BSTAR":"-0.00000063194000","REF_FRAME":"TEME","EPHEMERIS_TYPE":"0","PERIAPSIS":"546.324","TLE_LINE1":"1 45184U 20012G   22304.86731797 -.00000291  00000-0 -63194-6 0  9999","ELEMENT_SET_NO":"999","RCS_SIZE":"LARGE","DECAY_DATE":null,"NORAD_CAT_ID":"45184","ECCENTRICITY":"0.00013310","INCLINATION":"53.0551","MEAN_MOTION_DOT":"-0.00000291","OBJECT_ID":"2020-012G","OBJECT_NAME":"STARLINK-1205","TLE_LINE2":"2 45184  53.0551 125.0689 0001331 128.8795 231.2313 15.06389617149546","REV_AT_EPOCH":"14954","COUNTRY_CODE":"US","CLASSIFICATION_TYPE":"U","PERIOD":"95.593","SEMIMAJOR_AXIS":"6925.380","FILE":"3639522","MEAN_ANOMALY":"231.2313","SITE":"AFETR","TIME_SYSTEM":"UTC","ARG_OF_PERICENTER":"128.8795","OBJECT_TYPE":"PAYLOAD","APOAPSIS":"548.167","MEAN_MOTION":"15.06389617","CENTER_NAME":"EARTH","LAUNCH_DATE":"2020-02-17"},{"TLE_LINE2":"2 45185  53.0554 145.3603 0001356 110.9149 249.1986 15.06399942150169","OBJECT_NAME":"STARLINK-1216","MEAN_MOTION_DOT":"-0.00000635","INCLINATION":"53.0554","OBJECT_ID":"2020-012H","PERIOD":"95.592","COUNTRY_CODE":"US","REV_AT_EPOCH":"15016","CLASSIFICATION_TYPE":"U","OBJECT_TYPE":"PAYLOAD","ARG_OF_PERICENTER":"110.9149","SEMIMAJOR_AXIS":"6925.349","FILE":"3639522","MEAN_ANOMALY":"249.1986","SITE":"AFETR","TIME_SYSTEM":"UTC","LAUNCH_DATE":"2020-02-17","APOAPSIS":"548.153","CENTER_NAME":"EARTH","MEAN_MOTION":"15.06399942","RA_OF_ASC_NODE":"145.3603","EPOCH":"2022-10-31T19:16:02.987040","MEAN_MOTION_DDOT":"0.0000000000000","GP_ID":"216613486","MEAN_ELEMENT_THEORY":"SGP4","TLE_LINE1":"1 45185U 20012H   22304.80281235 -.00000635  00000-0 -23765-4 0  9991","ELEMENT_SET_NO":"999","BSTAR":"-0.00002376500000","REF_FRAME":"TEME","EPHEMERIS_TYPE":"0","PERIAPSIS":"546.275","ECCENTRICITY":"0.00013560","NORAD_CAT_ID":"45185","DECAY_DATE":null,"RCS_SIZE":"LARGE"},{"ELEMENT_SET_NO":"999","TLE_LINE1":"1 45186U 20012J   22304.81756338 -.00000752  00000-0 -31591-4 0  9990","PERIAPSIS":"546.307","EPHEMERIS_TYPE":"0","BSTAR":"-0.00003159100000","REF_FRAME":"TEME","ECCENTRICITY":"0.00013300","RCS_SIZE":"LARGE","NORAD_CAT_ID":"45186","DECAY_DATE":null,"RA_OF_ASC_NODE":"145.2980","MEAN_MOTION_DDOT":"0.0000000000000","GP_ID":"216613737","EPOCH":"2022-10-31T19:37:17.476032","MEAN_ELEMENT_THEORY":"SGP4","OBJECT_TYPE":"PAYLOAD","ARG_OF_PERICENTER":"109.2507","TIME_SYSTEM":"UTC","SITE":"AFETR","MEAN_ANOMALY":"250.8626","FILE":"3639522","SEMIMAJOR_AXIS":"6925.363","LAUNCH_DATE":"2020-02-17","MEAN_MOTION":"15.06395420","CENTER_NAME":"EARTH","APOAPSIS":"548.149","OBJECT_NAME":"STARLINK-1224","TLE_LINE2":"2 45186  53.0545 145.2980 0001330 109.2507 250.8626 15.06395420150165","OBJECT_ID":"2020-012J","MEAN_MOTION_DOT":"-0.00000752","INCLINATION":"53.0545","PERIOD":"95.592","CLASSIFICATION_TYPE":"U","REV_AT_EPOCH":"15016","COUNTRY_CODE":"US"},{"ECCENTRICITY":"0.00013610","NORAD_CAT_ID":"45187","DECAY_DATE":null,"RCS_SIZE":"LARGE","ELEMENT_SET_NO":"999","TLE_LINE1":"1 45187U 20012K   22304.82125141 -.00001118  00000-0 -56198-4 0  9991","EPHEMERIS_TYPE":"0","PERIAPSIS":"546.310","BSTAR":"-0.00005619800000","REF_FRAME":"TEME","MEAN_ELEMENT_THEORY":"SGP4","RA_OF_ASC_NODE":"145.2788","MEAN_MOTION_DDOT":"0.0000000000000","GP_ID":"216614486","EPOCH":"2022-10-31T19:42:36.121824","LAUNCH_DATE":"2020-02-17","CENTER_NAME":"EARTH","MEAN_MOTION":"15.06387396","APOAPSIS":"548.195","OBJECT_TYPE":"PAYLOAD","ARG_OF_PERICENTER":"104.3434","SITE":"AFETR","MEAN_ANOMALY":"255.7706","TIME_SYSTEM":"UTC","SEMIMAJOR_AXIS":"6925.387","FILE":"3639522","PERIOD":"95.593","CLASSIFICATION_TYPE":"U","COUNTRY_CODE":"US","REV_AT_EPOCH":"15021","TLE_LINE2":"2 45187  53.0547 145.2788 0001361 104.3434 255.7706 15.06387396150215","OBJECT_NAME":"STARLINK-1225","OBJECT_ID":"2020-012K","MEAN_MOTION_DOT":"-0.00001118","INCLINATION":"53.0547"},{"MEAN_ELEMENT_THEORY":"SGP4","RA_OF_ASC_NODE":"105.4311","EPOCH":"2022-10-31T18:49:31.893888","GP_ID":"216613236","MEAN_MOTION_DDOT":"0.0000000000000","ECCENTRICITY":"0.00013190","NORAD_CAT_ID":"45188","DECAY_DATE":null,"RCS_SIZE":"LARGE","TLE_LINE1":"1 45188U 20012L   22304.78439692  .00000599  00000-0  59109-4 0  9991","ELEMENT_SET_NO":"999","BSTAR":"0.00005910900000","REF_FRAME":"TEME","EPHEMERIS_TYPE":"0","PERIAPSIS":"546.329","PERIOD":"95.593","COUNTRY_CODE":"US","REV_AT_EPOCH":"15072","CLASSIFICATION_TYPE":"U","TLE_LINE2":"2 45188  53.0534 105.4311 0001319  83.7608 276.3531 15.06390723150727","OBJECT_NAME":"STARLINK-1228","MEAN_MOTION_DOT":"0.00000599","INCLINATION":"53.0534","OBJECT_ID":"2020-012L","LAUNCH_DATE":"2020-02-17","APOAPSIS":"548.155","CENTER_NAME":"EARTH","MEAN_MOTION":"15.06390723","OBJECT_TYPE":"PAYLOAD","ARG_OF_PERICENTER":"83.7608","SEMIMAJOR_AXIS":"6925.377","FILE":"3639522","SITE":"AFETR","MEAN_ANOMALY":"276.3531","TIME_SYSTEM":"UTC"},{"PERIOD":"95.593","COUNTRY_CODE":"US","REV_AT_EPOCH":"14744","CLASSIFICATION_TYPE":"U","TLE_LINE2":"2 45189  53.0536 145.2614 0001515 130.6137 229.4984 15.06389616147440","OBJECT_NAME":"STARLINK-1230","MEAN_MOTION_DOT":"0.00000952","INCLINATION":"53.0536","OBJECT_ID":"2020-012M","LAUNCH_DATE":"2020-02-17","APOAPSIS":"548.295","CENTER_NAME":"EARTH","MEAN_MOTION":"15.06389616","OBJECT_TYPE":"PAYLOAD","ARG_OF_PERICENTER":"130.6137","SEMIMAJOR_AXIS":"6925.380","FILE":"3639522","MEAN_ANOMALY":"229.4984","SITE":"AFETR","TIME_SYSTEM":"UTC","MEAN_ELEMENT_THEORY":"SGP4","RA_OF_ASC_NODE":"145.2614","EPOCH":"2022-10-31T19:47:54.774528","GP_ID":"216612987","MEAN_MOTION_DDOT":"0.0000000000000","ECCENTRICITY":"0.00015150","DECAY_DATE":null,"NORAD_CAT_ID":"45189","RCS_SIZE":"LARGE","TLE_LINE1":"1 45189U 20012M   22304.82493952  .00000952  00000-0  82790-4 0  9991","ELEMENT_SET_NO":"999","BSTAR":"0.00008279000000","REF_FRAME":"TEME","PERIAPSIS":"546.196","EPHEMERIS_TYPE":"0"},{"MEAN_ELEMENT_THEORY":"SGP4","EPOCH":"2022-10-31T20:14:26.761056","GP_ID":"216614237","MEAN_MOTION_DDOT":"0.0000000000000","RA_OF_ASC_NODE":"105.1765","NORAD_CAT_ID":"45190","DECAY_DATE":null,"RCS_SIZE":"LARGE","ECCENTRICITY":"0.00015040","REF_FRAME":"TEME","BSTAR":"0.00008087100000","EPHEMERIS_TYPE":"0","PERIAPSIS":"546.190","TLE_LINE1":"1 45190U 20012N   22304.84336529  .00000923  00000-0  80871-4 0  9997","ELEMENT_SET_NO":"999","COUNTRY_CODE":"US","REV_AT_EPOCH":"15068","CLASSIFICATION_TYPE":"U","PERIOD":"95.593","MEAN_MOTION_DOT":"0.00000923","INCLINATION":"53.0535","OBJECT_ID":"2020-012N","TLE_LINE2":"2 45190  53.0535 105.1765 0001504 101.8266 258.2892 15.06394269150682","OBJECT_NAME":"STARLINK-1234","APOAPSIS":"548.273","CENTER_NAME":"EARTH","MEAN_MOTION":"15.06394269","LAUNCH_DATE":"2020-02-17","FILE":"3639522","SEMIMAJOR_AXIS":"6925.366","TIME_SYSTEM":"UTC","SITE":"AFETR","MEAN_ANOMALY":"258.2892","ARG_OF_PERICENTER":"101.8266","OBJECT_TYPE":"PAYLOAD"},{"ECCENTRICITY":"0.00013750","DECAY_DATE":null,"NORAD_CAT_ID":"45191","RCS_SIZE":"LARGE","TLE_LINE1":"1 45191U 20012P   22304.83230738 -.00000698  00000-0 -27980-4 0  9995","ELEMENT_SET_NO":"999","REF_FRAME":"TEME","BSTAR":"-0.00002798000000","EPHEMERIS_TYPE":"0","PERIAPSIS":"546.287","MEAN_ELEMENT_THEORY":"SGP4","RA_OF_ASC_NODE":"145.2225","EPOCH":"2022-10-31T19:58:31.357632","MEAN_MOTION_DDOT":"0.0000000000000","GP_ID":"216613988","LAUNCH_DATE":"2020-02-17","APOAPSIS":"548.192","CENTER_NAME":"EARTH","MEAN_MOTION":"15.06391538","OBJECT_TYPE":"PAYLOAD","ARG_OF_PERICENTER":"93.2955","FILE":"3639522","SEMIMAJOR_AXIS":"6925.374","SITE":"AFETR","TIME_SYSTEM":"UTC","MEAN_ANOMALY":"266.8191","PERIOD":"95.593","COUNTRY_CODE":"US","REV_AT_EPOCH":"14743","CLASSIFICATION_TYPE":"U","TLE_LINE2":"2 45191  53.0540 145.2225 0001375  93.2955 266.8191 15.06391538147432","OBJECT_NAME":"STARLINK-1236","MEAN_MOTION_DOT":"-0.00000698","INCLINATION":"53.0540","OBJECT_ID":"2020-012P"},{"TLE_LINE2":"2 45192  53.0551 145.9337 0001435 105.4035 254.7112 15.06397967150208","OBJECT_NAME":"STARLINK-1237","INCLINATION":"53.0551","MEAN_MOTION_DOT":"0.00001914","OBJECT_ID":"2020-012Q","PERIOD":"95.592","COUNTRY_CODE":"US","REV_AT_EPOCH":"15020","CLASSIFICATION_TYPE":"U","OBJECT_TYPE":"PAYLOAD","ARG_OF_PERICENTER":"105.4035","SEMIMAJOR_AXIS":"6925.355","FILE":"3639522","MEAN_ANOMALY":"254.7112","SITE":"AFETR","TIME_SYSTEM":"UTC","LAUNCH_DATE":"2020-02-17","APOAPSIS":"548.214","CENTER_NAME":"EARTH","MEAN_MOTION":"15.06397967","RA_OF_ASC_NODE":"145.9337","EPOCH":"2022-10-31T16:10:16.656960","GP_ID":"216612737","MEAN_MOTION_DDOT":"0.0000000000000","MEAN_ELEMENT_THEORY":"SGP4","TLE_LINE1":"1 45192U 20012Q   22304.67380390  .00001914  00000-0  14738-3 0  9994","ELEMENT_SET_NO":"999","REF_FRAME":"TEME","BSTAR":"0.00014738000000","PERIAPSIS":"546.226","EPHEMERIS_TYPE":"0","ECCENTRICITY":"0.00014350","NORAD_CAT_ID":"45192","DECAY_DATE":null,"RCS_SIZE":"LARGE"},{"MEAN_ANOMALY":"263.9536","SITE":"AFETR","TIME_SYSTEM":"UTC","SEMIMAJOR_AXIS":"6925.363","FILE":"3639522","OBJECT_TYPE":"PAYLOAD","ARG_OF_PERICENTER":"96.1581","CENTER_NAME":"EARTH","MEAN_MOTION":"15.06395442","APOAPSIS":"548.004","LAUNCH_DATE":"2020-02-17","OBJECT_ID":"2020-012R","INCLINATION":"53.0549","MEAN_MOTION_DOT":"0.00001694","TLE_LINE2":"2 45193  53.0549 145.0935 0001121  96.1581 263.9536 15.06395442150179","OBJECT_NAME":"STARLINK-1239","CLASSIFICATION_TYPE":"U","COUNTRY_CODE":"US","REV_AT_EPOCH":"15017","PERIOD":"95.592","PERIAPSIS":"546.451","EPHEMERIS_TYPE":"0","BSTAR":"0.00013257000000","REF_FRAME":"TEME","ELEMENT_SET_NO":"999","TLE_LINE1":"1 45193U 20012R   22304.86178915  .00001694  00000-0  13257-3 0  9994","NORAD_CAT_ID":"45193","DECAY_DATE":null,"RCS_SIZE":"LARGE","ECCENTRICITY":"0.00011210","MEAN_MOTION_DDOT":"0.0000000000000","GP_ID":"216613487","EPOCH":"2022-10-31T20:40:58.582560","RA_OF_ASC_NODE":"145.0935","MEAN_ELEMENT_THEORY":"SGP4"}];
